NORAD_CAT_ID,OBJECT_NAME,OBJECT_TYPE,EPOCH,MEAN_MOTION,ECCENTRICITY,INCLINATION,RA_OF_ASC_NODE,ARG_OF_PERICENTER,MEAN_ANOMALY,BSTAR,MEAN_MOTION_DOT,MEAN_MOTION_DDOT,TLE_LINE0,TLE_LINE1,TLE_LINE2,SEMIMAJOR_AXIS,PERIOD,APOGEE,PERIGEE,DECAYED
52302.0,STARLINK-3564,PAYLOAD,2023-05-29 12:26:32,15.08827664,8.32e-05,53.2177,326.4009,100.061,260.0476,0.0001142,1.53e-05,0.0,0 STARLINK-3564,1 52302U 22041AT  23149.51843490  .00001530  00000-0  11420-3 0  9994,2 52302  53.2177 326.4009 0000832 100.0610 260.0476 15.08827664 61384,6917.918,95.438,540.359,539.208,0.0
52302.0,STARLINK-3564,PAYLOAD,2023-05-29 17:12:41,15.08834141,7.78e-05,53.2177,325.5086,101.2815,258.8265,7.7855e-05,9.51e-06,0.0,0 STARLINK-3564,1 52302U 22041AT  23149.71715172  .00000951  00000-0  77855-4 0  9992,2 52302  53.2177 325.5086 0000778 101.2815 258.8265 15.08834141 62625,6917.898,95.438,540.302,539.225,0.0
52302.0,STARLINK-3564,PAYLOAD,2023-05-29 18:48:04,15.08840466,6.91e-05,53.2174,325.2136,98.979,261.1281,5.2334e-05,5.45e-06,0.0,0 STARLINK-3564,1 52302U 22041AT  23149.78338822  .00000545  00000-0  52334-4 0  9996,2 52302  53.2174 325.2136 0000691  98.9790 261.1281 15.08840466 61422,6917.879,95.438,540.222,539.266,0.0
52302.0,STARLINK-3564,PAYLOAD,2023-05-30 12:17:19,15.08836446,7.88e-05,53.2179,321.9434,85.0799,275.0283,1.9821e-05,2.8e-07,0.0,0 STARLINK-3564,1 52302U 22041AT  23150.51203375  .00000028  00000-0  19821-4 0  9993,2 52302  53.2179 321.9434 0000788  85.0799 275.0283 15.08836446 61535,6917.891,95.438,540.301,539.211,0.0
52302.0,STARLINK-3564,PAYLOAD,2023-05-30 18:38:52,15.08839776,8.13e-05,53.2179,320.755,84.249,275.8595,4.7667e-05,4.71e-06,0.0,0 STARLINK-3564,1 52302U 22041AT  23150.77699145  .00000471  00000-0  47667-4 0  9996,2 52302  53.2179 320.7550 0000813  84.2490 275.8595 15.08839776 62780,6917.881,95.438,540.308,539.184,0.0
52302.0,STARLINK-3564,PAYLOAD,2023-05-31 04:11:10,15.08840482,8.78e-05,53.2186,318.9713,114.1976,245.9108,3.825e-05,3.21e-06,0.0,0 STARLINK-3564,1 52302U 22041AT  23151.17443143  .00000321  00000-0  38250-4 0  9998,2 52302  53.2186 318.9713 0000878 114.1976 245.9108 15.08840482 61638,6917.879,95.438,540.351,539.137,0.0
52302.0,STARLINK-3564,PAYLOAD,2023-05-31 20:05:02,15.08843711,8.82e-05,53.2184,315.9976,110.1997,249.909,0.00012923,1.77e-05,0.0,0 STARLINK-3564,1 52302U 22041AT  23151.83682899  .00001770  00000-0  12923-3 0  9991,2 52302  53.2184 315.9976 0000882 110.1997 249.9090 15.08843711 61731,6917.869,95.437,540.344,539.124,0.0
52302.0,STARLINK-3564,PAYLOAD,2023-06-01 04:01:57,15.08841306,8.79e-05,53.2184,314.5109,97.7141,262.3951,0.00010205,1.337e-05,0.0,0 STARLINK-3564,1 52302U 22041AT  23152.16803171  .00001337  00000-0  10205-3 0  9996,2 52302  53.2184 314.5109 0000879  97.7141 262.3951 15.08841306 61789,6917.876,95.437,540.349,539.133,0.0
52302.0,STARLINK-3564,PAYLOAD,2023-06-02 10:14:17,15.08834823,5.53e-05,53.2158,308.8571,83.2553,276.8502,5.1151e-05,5.27e-06,0.0,0 STARLINK-3564,1 52302U 22041AT  23153.42659619  .00000527  00000-0  51151-4 0  9998,2 52302  53.2158 308.8571 0000553  83.2553 276.8502 15.08834823 63189,6917.896,95.438,540.144,539.379,0.0
52302.0,STARLINK-3564,PAYLOAD,2023-06-02 16:35:50,15.08841233,7.36e-05,53.2171,307.6688,83.1064,277.0011,-1.565e-05,-5.37e-06,0.0,0 STARLINK-3564,1 52302U 22041AT  23153.69155574 -.00000537  00000-0 -15650-4 0  9995,2 52302  53.2171 307.6688 0000736  83.1064 277.0011 15.08841233 62011,6917.877,95.437,540.251,539.232,0.0
52302.0,STARLINK-3564,PAYLOAD,2023-06-03 10:05:05,15.08835437,7.23e-05,53.2171,304.3981,80.1904,279.9169,4.3275e-05,4.01e-06,0.0,0 STARLINK-3564,1 52302U 22041AT  23154.42019868  .00000401  00000-0  43275-4 0  9994,2 52302  53.2171 304.3981 0000723  80.1904 279.9169 15.08835437 62123,6917.894,95.438,540.26,539.259,0.0
52302.0,STARLINK-3564,PAYLOAD,2023-06-03 16:26:37,15.08838138,6.69e-05,53.2169,303.2089,77.7333,282.3734,7.1272e-05,8.47e-06,0.0,0 STARLINK-3564,1 52302U 22041AT  23154.68515649  .00000847  00000-0  71272-4 0  9992,2 52302  53.2169 303.2089 0000669  77.7333 282.3734 15.08838138 63379,6917.886,95.438,540.214,539.288,0.0
52302.0,STARLINK-3564,PAYLOAD,2023-06-04 14:42:01,15.08840299,8.32e-05,53.2168,299.0458,72.2264,287.8819,0.00012434,1.692e-05,0.0,0 STARLINK-3564,1 52302U 22041AT  23155.61251544  .00001692  00000-0  12434-3 0  9990,2 52302  53.2168 299.0458 0000832  72.2264 287.8819 15.08840299 62302,6917.879,95.438,540.32,539.169,0.0
52302.0,STARLINK-3564,PAYLOAD,2023-06-04 19:28:10,15.08843789,8.23e-05,53.2169,298.1533,76.3975,283.7109,0.00013964,1.936e-05,0.0,0 STARLINK-3564,1 52302U 22041AT  23155.81123290  .00001936  00000-0  13964-3 0  9998,2 52302  53.2169 298.1533 0000823  76.3975 283.7109 15.08843789 62338,6917.869,95.437,540.303,539.164,0.0
52302.0,STARLINK-3564,PAYLOAD,2023-06-05 05:00:29,15.08838374,8.42e-05,53.2165,296.3688,76.4421,283.6665,9.169e-05,1.172e-05,0.0,0 STARLINK-3564,1 52302U 22041AT  23156.20867766  .00001172  00000-0  91690-4 0  9990,2 52302  53.2165 296.3688 0000842  76.4421 283.6665 15.08838374 63604,6917.885,95.438,540.333,539.168,0.0
52302.0,STARLINK-3564,PAYLOAD,2023-06-05 12:57:24,15.08877885,0.0001108,53.2167,294.8816,65.8672,294.2436,-0.00041375,-6.873e-05,0.0,0 STARLINK-3564,1 52302U 22041AT  23156.53986244 -.00006873  00000-0 -41375-3 0  9998,2 52302  53.2167 294.8816 0001108  65.8672 294.2436 15.08877885 62443,6917.765,95.435,540.396,538.863,0.0
52302.0,STARLINK-3564,PAYLOAD,2023-06-05 16:08:11,15.088389,7.55e-05,53.2168,294.287,76.304,283.8036,0.0003143,4.718e-05,0.0,0 STARLINK-3564,1 52302U 22041AT  23156.67235353  .00004718  00000-0  31430-3 0  9996,2 52302  53.2168 294.2870 0000755  76.3040 283.8036 15.08838900 62468,6917.884,95.438,540.271,539.226,0.0
52302.0,STARLINK-3564,PAYLOAD,2023-06-06 09:37:26,15.08835872,0.0001088,53.2163,291.017,85.2261,274.8855,-1.9144e-05,-5.92e-06,0.0,0 STARLINK-3564,1 52302U 22041AT  23157.40100128 -.00000592  00000-0 -19144-4 0  9996,2 52302  53.2163 291.0170 0001088  85.2261 274.8855 15.08835872 63785,6917.893,95.438,540.511,539.005,0.0
52302.0,STARLINK-3564,PAYLOAD,2023-06-06 11:12:49,15.08832381,9.68e-05,53.2165,290.7202,85.219,274.8912,-5.1731e-05,-1.111e-05,0.0,0 STARLINK-3564,1 52302U 22041AT  23157.46724407 -.00001111  00000-0 -51731-4 0  9990,2 52302  53.2165 290.7202 0000968  85.2190 274.8912 15.08832381 62589,6917.904,95.438,540.438,539.099,0.0
52302.0,STARLINK-3564,PAYLOAD,2023-06-06 17:34:21,15.08840867,0.0001,53.218,289.5332,66.4663,293.6434,2.5244e-05,1.14e-06,0.0,0 STARLINK-3564,1 52302U 22041AT  23157.73219742  .00000114  00000-0  25244-4 0  9991,2 52302  53.2180 289.5332 0001000  66.4663 293.6434 15.08840867 62621,6917.878,95.437,540.435,539.051,0.0
52302.0,STARLINK-3564,PAYLOAD,2023-06-07 09:28:13,15.08833233,8.46e-05,53.2175,286.5575,78.4511,281.6576,-3.0954e-05,-7.8e-06,0.0,0 STARLINK-3564,1 52302U 22041AT  23158.39460501 -.00000780  00000-0 -30954-4 0  9990,2 52302  53.2175 286.5575 0000846  78.4511 281.6576 15.08833233 63931,6917.901,95.438,540.351,539.181,0.0
52302.0,STARLINK-3564,PAYLOAD,2023-06-07 11:03:36,15.08834651,8.47e-05,53.2174,286.26,79.9612,280.1475,-1.7411e-05,-5.65e-06,0.0,0 STARLINK-3564,1 52302U 22041AT  23158.46084403 -.00000565  00000-0 -17411-4 0  9995,2 52302  53.2174 286.2600 0000847  79.9612 280.1475 15.08834651 62739,6917.897,95.438,540.348,539.176,0.0
52302.0,STARLINK-3564,PAYLOAD,2023-06-07 19:00:30,15.08860801,6.35e-05,53.2174,284.7727,71.7718,288.3343,0.00015781,2.226e-05,0.0,0 STARLINK-3564,1 52302U 22041AT  23158.79202022  .00002226  00000-0  15781-3 0  9991,2 52302  53.2174 284.7727 0000635  71.7718 288.3343 15.08860801 62789,6917.817,95.436,540.121,539.243,0.0
52302.0,STARLINK-3564,PAYLOAD,2023-06-08 12:29:46,15.08832189,0.0001022,53.2175,281.5026,127.8541,232.2544,8.5201e-05,1.068e-05,0.0,0 STARLINK-3564,1 52302U 22041AT  23159.52067957  .00001068  00000-0  85201-4 0  9997,2 52302  53.2175 281.5026 0001022 127.8541 232.2544 15.08832189 62896,6917.904,95.438,540.476,539.062,0.0
52302.0,STARLINK-3564,PAYLOAD,2023-06-08 18:51:19,15.0883994,8.27e-05,53.2173,280.3118,71.1589,288.9493,9.0866e-05,1.159e-05,0.0,0 STARLINK-3564,1 52302U 22041AT  23159.78563751  .00001159  00000-0  90866-4 0  9992,2 52302  53.2173 280.3118 0000827  71.1589 288.9493 15.08839940 62936,6917.881,95.438,540.318,539.173,0.0
52302.0,STARLINK-3564,PAYLOAD,2023-06-08 20:26:42,15.08841023,8.16e-05,53.2174,280.0145,71.8968,288.2113,9.7634e-05,1.267e-05,0.0,0 STARLINK-3564,1 52302U 22041AT  23159.85187653  .00001267  00000-0  97634-4 0  9993,2 52302  53.2174 280.0145 0000816  71.8968 288.2113 15.08841023 64153,6917.877,95.437,540.307,539.178,0.0
52302.0,STARLINK-3564,PAYLOAD,2023-06-09 13:55:57,15.08832103,9e-05,53.2171,276.7432,74.2036,285.9055,5.8141e-05,6.38e-06,0.0,0 STARLINK-3564,1 52302U 22041AT  23160.58052654  .00000638  00000-0  58141-4 0  9998,2 52302  53.2171 276.7432 0000900  74.2036 285.9055 15.08832103 63054,6917.905,95.438,540.392,539.147,0.0
52302.0,STARLINK-3564,PAYLOAD,2023-06-09 15:31:20,15.08838563,8.67e-05,53.2169,276.4465,76.7012,283.4077,6.145e-05,6.9e-06,0.0,0 STARLINK-3564,1 52302U 22041AT  23160.64676211  .00000690  00000-0  61450-4 0  9991,2 52302  53.2169 276.4465 0000867  76.7012 283.4077 15.08838563 63061,6917.885,95.438,540.35,539.15,0.0
52302.0,STARLINK-3564,PAYLOAD,2023-06-10 01:03:38,15.08838439,9.11e-05,53.2173,274.6617,67.9423,292.1666,0.00010987,1.461e-05,0.0,0 STARLINK-3564,1 52302U 22041AT  23161.04420019  .00001461  00000-0  10987-3 0  9994,2 52302  53.2173 274.6617 0000911  67.9423 292.1666 15.08838439 64337,6917.885,95.438,540.38,539.12,0.0
52302.0,STARLINK-3564,PAYLOAD,2023-06-10 13:46:43,15.0884289,9.48e-05,53.2167,272.2844,62.5175,297.5914,0.00010964,1.458e-05,0.0,0 STARLINK-3564,1 52302U 22041AT  23161.57411908  .00001458  00000-0  10964-3 0  9990,2 52302  53.2167 272.2844 0000948  62.5175 297.5914 15.08842890 63207,6917.872,95.437,540.392,539.081,0.0
